[
    {
        "Altitude(m)": 706093.1302290765,
        "Argument of Periapsis(deg)": 0.0022780242373254137,
        "Eccentricity": 0.0,
        "Inclination(deg)": 45.0,
        "Latitude(deg)": -13.213940758192253,
        "Longitude(deg)": -21.624466055533567,
        "Mean Anomaly(deg)": -161.32975667050383,
        "RAAN(deg)": 244.99784961170838,
        "Satellite Name": "Constellation 1 1090",
        "Satellite Number": 1090,
        "Semi-Major Axis(m)": 7083131.272910544,
        "Time(s)": 38
    },
    {
        "Altitude(m)": 706104.3645293417,
        "Argument of Periapsis(deg)": 0.002337972243570819,
        "Eccentricity": 0.0,
        "Inclination(deg)": 45.0,
        "Latitude(deg)": -13.255909486699053,
        "Longitude(deg)": -21.583391017653145,
        "Mean Anomaly(deg)": -161.26905553025398,
        "RAAN(deg)": 244.99779302254282,
        "Satellite Name": "Constellation 1 1090",
        "Satellite Number": 1090,
        "Semi-Major Axis(m)": 7083131.272910544,
        "Time(s)": 39
    },
    {
        "Altitude(m)": 706115.613202309,
        "Argument of Periapsis(deg)": 0.0023979202498162246,
        "Eccentricity": 0.0,
        "Inclination(deg)": 45.0,
        "Latitude(deg)": -13.297869980746373,
        "Longitude(deg)": -21.54230059393754,
        "Mean Anomaly(deg)": -161.20835439000405,
        "RAAN(deg)": 244.99773643337724,
        "Satellite Name": "Constellation 1 1090",
        "Satellite Number": 1090,
        "Semi-Major Axis(m)": 7083131.272910544,
        "Time(s)": 40
    },
    {
        "Altitude(m)": 706126.8762150647,
        "Argument of Periapsis(deg)": 0.00245786825606163,
        "Eccentricity": 0.0,
        "Inclination(deg)": 45.0,
        "Latitude(deg)": -13.339822210995054,
        "Longitude(deg)": -21.501194731380565,
        "Mean Anomaly(deg)": -161.14765324975414,
        "RAAN(deg)": 244.9976798442117,
        "Satellite Name": "Constellation 1 1090",
        "Satellite Number": 1090,
        "Semi-Major Axis(m)": 7083131.272910544,
        "Time(s)": 41
    },
    {
        "Altitude(m)": 706138.153534606,
        "Argument of Periapsis(deg)": 0.002517816262307036,
        "Eccentricity": 0.0,
        "Inclination(deg)": 45.0,
        "Latitude(deg)": -13.38176614807662,
        "Longitude(deg)": -21.46007337694828,
        "Mean Anomaly(deg)": -161.08695210950424,
        "RAAN(deg)": 244.9976232550461,
        "Satellite Name": "Constellation 1 1090",
        "Satellite Number": 1090,
        "Semi-Major Axis(m)": 7083131.272910544,
        "Time(s)": 42
    },
    {
        "Altitude(m)": 706149.4451278684,
        "Argument of Periapsis(deg)": 0.0025777642685524413,
        "Eccentricity": 0.0,
        "Inclination(deg)": 45.0,
        "Latitude(deg)": -13.423701762592733,
        "Longitude(deg)": -21.418936477578704,
        "Mean Anomaly(deg)": -161.02625096925433,
        "RAAN(deg)": 244.99756666588053,
        "Satellite Name": "Constellation 1 1090",
        "Satellite Number": 1090,
        "Semi-Major Axis(m)": 7083131.272910544,
        "Time(s)": 43
    },
    {
        "Altitude(m)": 706160.7509617222,
        "Argument of Periapsis(deg)": 0.002637712274797847,
        "Eccentricity": 0.0,
        "Inclination(deg)": 45.0,
        "Latitude(deg)": -13.465629025115653,
        "Longitude(deg)": -21.37778414827875,
        "Mean Anomaly(deg)": -160.96554982900443,
        "RAAN(deg)": 244.99751007671497,
        "Satellite Name": "Constellation 1 1090",
        "Satellite Number": 1090,
        "Semi-Major Axis(m)": 7083131.272910544,
        "Time(s)": 44
    },
    {
        "Altitude(m)": 706172.0710029474,
        "Argument of Periapsis(deg)": 0.0026976602810432526,
        "Eccentricity": 0.0,
        "Inclination(deg)": 45.0,
        "Latitude(deg)": -13.50754790618686,
        "Longitude(deg)": -21.33661599973601,
        "Mean Anomaly(deg)": -160.90484868875453,
        "RAAN(deg)": 244.99745348754942,
        "Satellite Name": "Constellation 1 1090",
        "Satellite Number": 1090,
        "Semi-Major Axis(m)": 7083131.272910544,
        "Time(s)": 45
    },
    {
        "Altitude(m)": 706183.4052182807,
        "Argument of Periapsis(deg)": 0.0027576082872886585,
        "Eccentricity": 0.0,
        "Inclination(deg)": 45.0,
        "Latitude(deg)": -13.549458376318581,
        "Longitude(deg)": -21.29543214690127,
        "Mean Anomaly(deg)": -160.84414754850462,
        "RAAN(deg)": 244.99739689838384,
        "Satellite Name": "Constellation 1 1090",
        "Satellite Number": 1090,
        "Semi-Major Axis(m)": 7083131.272910544,
        "Time(s)": 46
    },
    {
        "Altitude(m)": 706194.753574369,
        "Argument of Periapsis(deg)": 0.0028175562935340644,
        "Eccentricity": 0.0,
        "Inclination(deg)": 45.0,
        "Latitude(deg)": -13.591360405992692,
        "Longitude(deg)": -21.254232536599954,
        "Mean Anomaly(deg)": -160.78344640825478,
        "RAAN(deg)": 244.99734030921823,
        "Satellite Name": "Constellation 1 1090",
        "Satellite Number": 1090,
        "Semi-Major Axis(m)": 7083131.272910544,
        "Time(s)": 47
    },
    {
        "Altitude(m)": 706206.1160377909,
        "Argument of Periapsis(deg)": 0.00287750429977947,
        "Eccentricity": 0.0,
        "Inclination(deg)": 45.0,
        "Latitude(deg)": -13.633253965660934,
        "Longitude(deg)": -21.213017115628958,
        "Mean Anomaly(deg)": -160.72274526800484,
        "RAAN(deg)": 244.99728372005268,
        "Satellite Name": "Constellation 1 1090",
        "Satellite Number": 1090,
        "Semi-Major Axis(m)": 7083131.272910544,
        "Time(s)": 48
    },
    {
        "Altitude(m)": 706217.4925750667,
        "Argument of Periapsis(deg)": 0.002937452306024875,
        "Eccentricity": 0.0,
        "Inclination(deg)": 45.0,
        "Latitude(deg)": -13.675139025744453,
        "Longitude(deg)": -21.17178583075738,
        "Mean Anomaly(deg)": -160.662044127755,
        "RAAN(deg)": 244.99722713088713,
        "Satellite Name": "Constellation 1 1090",
        "Satellite Number": 1090,
        "Semi-Major Axis(m)": 7083131.272910544,
        "Time(s)": 49
    },
    {
        "Altitude(m)": 706228.8831526355,
        "Argument of Periapsis(deg)": 0.0029974003122702807,
        "Eccentricity": 0.0,
        "Inclination(deg)": 45.0,
        "Latitude(deg)": -13.717015556634223,
        "Longitude(deg)": -21.1305386287255,
        "Mean Anomaly(deg)": -160.60134298750503,
        "RAAN(deg)": 244.99717054172157,
        "Satellite Name": "Constellation 1 1090",
        "Satellite Number": 1090,
        "Semi-Major Axis(m)": 7083131.272910544,
        "Time(s)": 50
    },
    {
        "Altitude(m)": 706240.2877368691,
        "Argument of Periapsis(deg)": 0.0030573483185156866,
        "Eccentricity": 0.0,
        "Inclination(deg)": 45.0,
        "Latitude(deg)": -13.75888352869044,
        "Longitude(deg)": -21.08927545624559,
        "Mean Anomaly(deg)": -160.54064184725513,
        "RAAN(deg)": 244.997113952556,
        "Satellite Name": "Constellation 1 1090",
        "Satellite Number": 1090,
        "Semi-Major Axis(m)": 7083131.272910544,
        "Time(s)": 51
    },
    {
        "Altitude(m)": 706251.7062940771,
        "Argument of Periapsis(deg)": 0.003117296324761092,
        "Eccentricity": 0.0,
        "Inclination(deg)": 45.0,
        "Latitude(deg)": -13.800742912243052,
        "Longitude(deg)": -21.047996428098163,
        "Mean Anomaly(deg)": -160.47994070700528,
        "RAAN(deg)": 244.99705736339038,
        "Satellite Name": "Constellation 1 1090",
        "Satellite Number": 1090,
        "Semi-Major Axis(m)": 7083131.272910544,
        "Time(s)": 52
    },
    {
        "Altitude(m)": 706263.1387904886,
        "Argument of Periapsis(deg)": 0.0031772443310064975,
        "Eccentricity": 0.0,
        "Inclination(deg)": 45.0,
        "Latitude(deg)": -13.842593677590457,
        "Longitude(deg)": -21.006701154744107,
        "Mean Anomaly(deg)": -160.41923956675532,
        "RAAN(deg)": 244.99700077422483,
        "Satellite Name": "Constellation 1 1090",
        "Satellite Number": 1090,
        "Semi-Major Axis(m)": 7083131.272910544,
        "Time(s)": 53
    },
    {
        "Altitude(m)": 706274.5851922686,
        "Argument of Periapsis(deg)": 0.0032371923372519038,
        "Eccentricity": 0.0,
        "Inclination(deg)": 45.0,
        "Latitude(deg)": -13.884435795000762,
        "Longitude(deg)": -20.965389750907338,
        "Mean Anomaly(deg)": -160.35853842650548,
        "RAAN(deg)": 244.99694418505928,
        "Satellite Name": "Constellation 1 1090",
        "Satellite Number": 1090,
        "Semi-Major Axis(m)": 7083131.272910544,
        "Time(s)": 54
    },
    {
        "Altitude(m)": 706286.0454655164,
        "Argument of Periapsis(deg)": 0.0032971403434973088,
        "Eccentricity": 0.0,
        "Inclination(deg)": 45.0,
        "Latitude(deg)": -13.926269234711118,
        "Longitude(deg)": -20.9240621631856,
        "Mean Anomaly(deg)": -160.2978372862556,
        "RAAN(deg)": 244.99688759589372,
        "Satellite Name": "Constellation 1 1090",
        "Satellite Number": 1090,
        "Semi-Major Axis(m)": 7083131.272910544,
        "Time(s)": 55
    },
    {
        "Altitude(m)": 706297.519576255,
        "Argument of Periapsis(deg)": 0.0033570883497427146,
        "Eccentricity": 0.0,
        "Inclination(deg)": 45.0,
        "Latitude(deg)": -13.968093966927452,
        "Longitude(deg)": -20.882718338148383,
        "Mean Anomaly(deg)": -160.23713614600564,
        "RAAN(deg)": 244.9968310067281,
        "Satellite Name": "Constellation 1 1090",
        "Satellite Number": 1090,
        "Semi-Major Axis(m)": 7083131.272910544,
        "Time(s)": 56
    }
]